JY1SAT (JO-97)          
1 43803U 18099AX  26068.68634132  .00017774  00000+0  60804-3 0  9996
2 43803  97.4249 131.3625 0004723 256.6795 103.3919 15.30302628398390
STARLINK-31025          
1 58634U 23203S   26068.02679154 -.00001194  00000+0 -33876-4 0  9999
2 58634  42.9998  70.4447 0000593 277.9710  82.1075 15.27576528124698
